{
  "type": "FeatureCollection",
  "features": [
    {
      "type": "Feature",
      "properties": {
        "norad_id": 34492,
        "name": "IRIDIUM 33 DEB",
        "group": "iridium-33-debris",
        "lat": -22.32109236401029,
        "lon": -24.414194470769424,
        "alt_km": 786.6913445875134,
        "timestamp": "2025-12-06T18:50:10.554397+00:00",
        "meta_object_name": "IRIDIUM 33 DEB",
        "meta_object_id": "1997-051GH",
        "meta_epoch": "2025-12-06T00:41:00.544992",
        "meta_mean_motion": 14.2544154,
        "meta_eccentricity": 0.01899132,
        "meta_inclination": 86.4749,
        "meta_ra_of_asc_node": 337.3411,
        "meta_arg_of_pericenter": 259.9437,
        "meta_mean_anomaly": 156.6949,
        "meta_ephemeris_type": 0,
        "meta_classification_type": "U",
        "meta_norad_cat_id": 34492,
        "meta_element_set_no": 999,
        "meta_rev_at_epoch": 84963,
        "meta_bstar": 0.0084279404,
        "meta_mean_motion_dot": 0.000241,
        "meta_mean_motion_ddot": 0,
        "tle_line1": "1 34492U 97051GH  25340.02847853  .00024100  00000+0  84279-2 0  9993",
        "tle_line2": "2 34492  86.4749 337.3411 0189913 259.9437 156.6949 14.25441540849634"
      },
      "geometry": {
        "type": "Point",
        "coordinates": [
          -24.414194470769424,
          -22.32109236401029
        ]
      }
    },
    {
      "type": "Feature",
      "properties": {
        "norad_id": 34497,
        "name": "IRIDIUM 33 DEB",
        "group": "iridium-33-debris",
        "lat": 5.140657064083872,
        "lon": -125.38981602425817,
        "alt_km": 859.6127930987004,
        "timestamp": "2025-12-06T18:50:10.554407+00:00",
        "meta_object_name": "IRIDIUM 33 DEB",
        "meta_object_id": "1997-051GN",
        "meta_epoch": "2025-12-06T04:41:47.589216",
        "meta_mean_motion": 14.27423869,
        "meta_eccentricity": 0.00795001,
        "meta_inclination": 86.2786,
        "meta_ra_of_asc_node": 55.1972,
        "meta_arg_of_pericenter": 0.8311,
        "meta_mean_anomaly": 28.2242,
        "meta_ephemeris_type": 0,
        "meta_classification_type": "U",
        "meta_norad_cat_id": 34497,
        "meta_element_set_no": 999,
        "meta_rev_at_epoch": 86790,
        "meta_bstar": 0.001072114,
        "meta_mean_motion_dot": 2.737e-05,
        "meta_mean_motion_ddot": 0,
        "tle_line1": "1 34497U 97051GN  25340.19568969  .00002737  00000+0  10721-2 0  9997",
        "tle_line2": "2 34497  86.2786  55.1972 0079500   0.8311  28.2242 14.27423869867905"
      },
      "geometry": {
        "type": "Point",
        "coordinates": [
          -125.38981602425817,
          5.140657064083872
        ]
      }
    },
    {
      "type": "Feature",
      "properties": {
        "norad_id": 34508,
        "name": "IRIDIUM 33 DEB",
        "group": "iridium-33-debris",
        "lat": 81.50073024384193,
        "lon": -99.96392656778927,
        "alt_km": 760.0361093144811,
        "timestamp": "2025-12-06T18:50:10.554417+00:00",
        "meta_object_name": "IRIDIUM 33 DEB",
        "meta_object_id": "1997-051GZ",
        "meta_epoch": "2025-12-06T01:40:58.602144",
        "meta_mean_motion": 14.38332013,
        "meta_eccentricity": 0.00656496,
        "meta_inclination": 86.3709,
        "meta_ra_of_asc_node": 105.4704,
        "meta_arg_of_pericenter": 194.575,
        "meta_mean_anomaly": 165.3557,
        "meta_ephemeris_type": 0,
        "meta_classification_type": "U",
        "meta_norad_cat_id": 34508,
        "meta_element_set_no": 999,
        "meta_rev_at_epoch": 87213,
        "meta_bstar": 0.0029041862,
        "meta_mean_motion_dot": 9.088e-05,
        "meta_mean_motion_ddot": 0,
        "tle_line1": "1 34508U 97051GZ  25340.07012271  .00009088  00000+0  29042-2 0  9999",
        "tle_line2": "2 34508  86.3709 105.4704 0065649 194.5750 165.3557 14.38332013872138"
      },
      "geometry": {
        "type": "Point",
        "coordinates": [
          -99.96392656778927,
          81.50073024384193
        ]
      }
    },
    {
      "type": "Feature",
      "properties": {
        "norad_id": 34521,
        "name": "IRIDIUM 33 DEB",
        "group": "iridium-33-debris",
        "lat": 77.13997226876394,
        "lon": -162.92647455471538,
        "alt_km": 676.1581690038201,
        "timestamp": "2025-12-06T18:50:10.554427+00:00",
        "meta_object_name": "IRIDIUM 33 DEB",
        "meta_object_id": "1997-051HN",
        "meta_epoch": "2025-12-05T14:28:10.515936",
        "meta_mean_motion": 14.63269452,
        "meta_eccentricity": 0.00010915,
        "meta_inclination": 86.3806,
        "meta_ra_of_asc_node": 33.69,
        "meta_arg_of_pericenter": 272.9891,
        "meta_mean_anomaly": 87.1196,
        "meta_ephemeris_type": 0,
        "meta_classification_type": "U",
        "meta_norad_cat_id": 34521,
        "meta_element_set_no": 999,
        "meta_rev_at_epoch": 88368,
        "meta_bstar": 0.0017646216,
        "meta_mean_motion_dot": 9.121e-05,
        "meta_mean_motion_ddot": 0,
        "tle_line1": "1 34521U 97051HN  25339.60289949  .00009121  00000+0  17646-2 0  9994",
        "tle_line2": "2 34521  86.3806  33.6900 0001091 272.9891  87.1196 14.63269452883685"
      },
      "geometry": {
        "type": "Point",
        "coordinates": [
          -162.92647455471538,
          77.13997226876394
        ]
      }
    },
    {
      "type": "Feature",
      "properties": {
        "norad_id": 34525,
        "name": "IRIDIUM 33 DEB",
        "group": "iridium-33-debris",
        "lat": -1.4901444987556556,
        "lon": 49.291034508346186,
        "alt_km": 753.817218336404,
        "timestamp": "2025-12-06T18:50:10.554438+00:00",
        "meta_object_name": "IRIDIUM 33 DEB",
        "meta_object_id": "1997-051HS",
        "meta_epoch": "2025-12-06T03:59:55.296672",
        "meta_mean_motion": 14.42880527,
        "meta_eccentricity": 0.00065785,
        "meta_inclination": 86.3735,
        "meta_ra_of_asc_node": 49.6493,
        "meta_arg_of_pericenter": 110.3274,
        "meta_mean_anomaly": 279.0864,
        "meta_ephemeris_type": 0,
        "meta_classification_type": "U",
        "meta_norad_cat_id": 34525,
        "meta_element_set_no": 999,
        "meta_rev_at_epoch": 87993,
        "meta_bstar": 0.0007253314,
        "meta_mean_motion_dot": 2.441e-05,
        "meta_mean_motion_ddot": 0,
        "tle_line1": "1 34525U 97051HS  25340.16661223  .00002441  00000+0  72533-3 0  9995",
        "tle_line2": "2 34525  86.3735  49.6493 0006578 110.3274 279.0864 14.42880527879935"
      },
      "geometry": {
        "type": "Point",
        "coordinates": [
          49.291034508346186,
          -1.4901444987556556
        ]
      }
    },
    {
      "type": "Feature",
      "properties": {
        "norad_id": 34529,
        "name": "IRIDIUM 33 DEB",
        "group": "iridium-33-debris",
        "lat": -57.49109644373821,
        "lon": 32.2248183972814,
        "alt_km": 764.3912105015288,
        "timestamp": "2025-12-06T18:50:10.554448+00:00",
        "meta_object_name": "IRIDIUM 33 DEB",
        "meta_object_id": "1997-051HW",
        "meta_epoch": "2025-12-06T02:26:00.477888",
        "meta_mean_motion": 14.40607613,
        "meta_eccentricity": 0.000399,
        "meta_inclination": 86.3646,
        "meta_ra_of_asc_node": 38.2414,
        "meta_arg_of_pericenter": 199.9181,
        "meta_mean_anomaly": 160.1863,
        "meta_ephemeris_type": 0,
        "meta_classification_type": "U",
        "meta_norad_cat_id": 34529,
        "meta_element_set_no": 999,
        "meta_rev_at_epoch": 88046,
        "meta_bstar": 0.00021681018,
        "meta_mean_motion_dot": 7.11e-06,
        "meta_mean_motion_ddot": 0,
        "tle_line1": "1 34529U 97051HW  25340.10139442  .00000711  00000+0  21681-3 0  9992",
        "tle_line2": "2 34529  86.3646  38.2414 0003990 199.9181 160.1863 14.40607613880462"
      },
      "geometry": {
        "type": "Point",
        "coordinates": [
          32.2248183972814,
          -57.49109644373821
        ]
      }
    },
    {
      "type": "Feature",
      "properties": {
        "norad_id": 34538,
        "name": "IRIDIUM 33 DEB",
        "group": "iridium-33-debris",
        "lat": 82.2458653830758,
        "lon": 159.60128465141557,
        "alt_km": 750.1396935104431,
        "timestamp": "2025-12-06T18:50:10.554458+00:00",
        "meta_object_name": "IRIDIUM 33 DEB",
        "meta_object_id": "1997-051JF",
        "meta_epoch": "2025-12-06T08:27:05.441184",
        "meta_mean_motion": 14.42592523,
        "meta_eccentricity": 0.00336215,
        "meta_inclination": 86.2774,
        "meta_ra_of_asc_node": 8.3539,
        "meta_arg_of_pericenter": 349.5776,
        "meta_mean_anomaly": 21.1302,
        "meta_ephemeris_type": 0,
        "meta_classification_type": "U",
        "meta_norad_cat_id": 34538,
        "meta_element_set_no": 999,
        "meta_rev_at_epoch": 87664,
        "meta_bstar": 0.0017279991,
        "meta_mean_motion_dot": 5.794e-05,
        "meta_mean_motion_ddot": 0,
        "tle_line1": "1 34538U 97051JF  25340.35214631  .00005794  00000+0  17280-2 0  9998",
        "tle_line2": "2 34538  86.2774   8.3539 0033621 349.5776  21.1302 14.42592523876640"
      },
      "geometry": {
        "type": "Point",
        "coordinates": [
          159.60128465141557,
          82.2458653830758
        ]
      }
    }
  ]
}